GLOBALSTAR M001 [-]     
1 25162U 98008A   23328.79888924 -.00000047  00000+0  37954-3 0  9996
2 25162  52.0013 193.3281 0002612 107.1371 331.8829 12.38173601173059
GLOBALSTAR M004 [-]     
1 25163U 98008B   23328.26491903 -.00000056  00000+0  26335-3 0  9997
2 25163  52.0012 355.8306 0003325 102.8535 336.8964 12.63342478189520
GLOBALSTAR M002 [-]     
1 25164U 98008C   23328.86008592 -.00000074  00000+0  41682-4 0  9995
2 25164  52.0005 230.1887 0001269 131.0961 228.9969 11.61497453117791
GLOBALSTAR M003 [-]     
1 25165U 98008D   23329.18675101  .00000050  00000+0  14848-2 0  9993
2 25165  51.9786 307.2869 0007591 225.2354 219.9382 12.11955722164197
GLOBALSTAR M014 [-]     
1 25306U 98023A   23329.07490529 -.00000036  00000+0  78490-3 0  9993
2 25306  51.9803 164.8576 0001847  66.5276 114.3981 11.65462412124683
GLOBALSTAR M006 [-]     
1 25307U 98023B   23328.82400993 -.00000048  00000+0  57672-3 0  9994
2 25307  51.9912 196.6491 0003849 144.3841 296.4452 11.58157090150747
GLOBALSTAR M015 [-]     
1 25308U 98023C   23329.17246215 -.00000069  00000+0  10572-3 0  9990
2 25308  51.9823 268.1332 0012319 137.7281 328.3659 11.48858340128939
GLOBALSTAR M008 [-]     
1 25309U 98023D   23328.75247000 -.00000076  00000+0  15788-3 0  9999
2 25309  51.9991  51.8330 0002808  65.6210  77.0274 12.36032181167304
